YAOGAN24
1 40310U 14072A   18094.49038618  .00000032  00000-0  11887-4 0  9997
2 40310  98.0296 217.9877 0016344 207.6039 152.4301 14.77196662181724
